{
"type": "FeatureCollection",
"name": "footprint",
"crs": { "type": "name", "properties": { "name": "urn:ogc:def:crs:OGC:1.3:CRS84" } },
"xy_coordinate_resolution": 1e-08,
"features": [
{ "type": "Feature", "properties": { "location": "/tmp/tmphxp6zp38/BR33_500_040034.tiff" }, "geometry": { "type": "MultiPolygon", "coordinates": [ [ [ [ 175.25501349, -41.60196161 ], [ 175.25512636, -41.60520172 ], [ 175.25800432, -41.6051452 ], [ 175.25789131, -41.6019051 ], [ 175.25501349, -41.60196161 ] ] ] ] } }
]
}
